*******************************************************************************
 Revised: Mar 27, 2009               Neptune                                899
 
 PHYSICAL DATA (update 2009-May-26):
  Mass (10^24 kg)       =   102.41        Density (g/cm^3)       =  1.638
  Equat. radius (1 bar) = 24766+-15 km    Polar radius (km)      = 24342+-30
  Volumetric mean radius= 24624+-21 km    Flattening             =  0.0171 

  Rotation period       = 16.11+-0.01 hr  Rot. rate(10^-4 rad/s) =  1.083   
  m = w^2a^3/GM         =  0.02609        Hydrostatic flat., fh  =  0.01804
  Inferred rot. period  = 16.7+-1.4 hr    ks = 3*J2/m            =  0.407
  Mom. of inert. I/MRo^2=                 I/MRo^2 (upper bound)  =  0.239 
  Rocky core mass (Mc/M)=                 Y factor (He/H ratio)  =  0.235+-.040

  GM (km^3/s^2)         = 6,835,107       GM 1-sigma (km^3/s^2)  = +-15 
  Equ. grav, ge (m/s^2) = 11.15           Pol. grav, gp (m/s^2)  = 11.41+-0.03

  Geometric albedo      =  0.41           Visual magnitude V(1,0)= -6.87
  Vis. mag. (opposition)= +7.84           Obliquity to orbit     = 29.56 deg
  Sidereal orbit period = 164.79132 yr    Sidereal orbit period  = 60190.029 d
  Mean daily motion     = 0.006020076dg/d Mean orbit velocity    = 5.4778 km/s 

  Atmos. temp. (1 bar)  =  72+-2 K        Heat flow/mass (x10^7) =  2 erg/gm*s
  Planetary Solar Const =   1.47 W/m^2    Dipole tilt/offset     = 47deg/0.55Rp 
  Escape velocity (km/s)=  23.5           Mag.dip.mom(gauss-Rp^3)= 0.133
  Aroche(ice)/Rp        =  2.98           Hill's sphere rad., Rp = 4700
*******************************************************************************
 
 
*******************************************************************************
Ephemeris / WWW_USER Sat May  7 04:47:08 2011  Pasadena, USA     / Horizons    
*******************************************************************************
Target body name: Neptune (899)                   {source: NEP081}
Center body name: Earth (399)                     {source: DE405}
Center-site name: GEOCENTRIC
*******************************************************************************
Start time      : A.D. 2011-Apr-18 00:00:00.0000 UT      
Stop  time      : A.D. 2020-May-18 00:00:00.0000 UT      
Step-size       : 1440 minutes
*******************************************************************************
Target pole/equ : IAU_NEPTUNE                     {East-longitude -}
Target radii    : 24764.0 x 24764.0 x 24341.0 km  {Equator, meridian, pole}    
Center geodetic : 0.00000000,0.00000000,0.0000000 {E-lon(deg),Lat(deg),Alt(km)}
Center cylindric: 0.00000000,0.00000000,0.0000000 {E-lon(deg),Dxy(km),Dz(km)}
Center pole/equ : High-precision EOP model        {East-longitude +}
Center radii    : 6378.1 x 6378.1 x 6356.8 km     {Equator, meridian, pole}    
Target primary  : Sun                             {source: DE405+DE406}
Interfering body: MOON (Req= 1737.400) km         {source: DE405}
Deflecting body : Sun, EARTH                      {source: DE405}
Deflecting GMs  : 1.3271E+11, 3.9860E+05 km^3/s^2                              
Atmos refraction: NO (AIRLESS)
RA format       : HMS
Time format     : CAL 
EOP file        : eop.110506.p110728                                           
EOP coverage    : DATA-BASED 1962-JAN-20 TO 2011-MAY-06. PREDICTS-> 2011-JUL-27
Units conversion: 1 AU= 149597870.691 km, c= 299792.458 km/s, 1 day= 86400.0 s 
Table cut-offs 1: Elevation (-90.0deg=NO ),Airmass (>38.000=NO), Daylight (NO )
Table cut-offs 2: Solar Elongation (  0.0,180.0=NO )                           
*************************************************************************************************
 Date__(UT)__HR:MN     R.A._(ICRF/J2000.0)_DEC R.A.__(a-apparent)__DEC  APmag  S-brt   Illu% Cnst
*************************************************************************************************
$$SOE
 2018-Feb-21 00:00     22 59 39.36 -07 25 04.6 23 00 33.93 -07 19 24.1   7.96   9.42  99.999  Aqr
 2018-Feb-22 00:00     22 59 47.73 -07 24 13.0 23 00 42.29 -07 18 32.5   7.96   9.42  99.999  Aqr
 2018-Feb-23 00:00     22 59 56.12 -07 23 21.3 23 00 50.68 -07 17 40.7   7.96   9.42  99.999  Aqr
 2018-Feb-24 00:00     23 00 04.53 -07 22 29.5 23 00 59.10 -07 16 48.8   7.96   9.42  99.999  Aqr
 2018-Feb-25 00:00     23 00 12.95 -07 21 37.7 23 01 07.53 -07 15 56.8   7.96   9.41 100.000  Aqr
 2018-Feb-26 00:00     23 00 21.39 -07 20 45.7 23 01 15.97 -07 15 04.8   7.96   9.41 100.000  Aqr
 2018-Feb-27 00:00     23 00 29.84 -07 19 53.7 23 01 24.43 -07 14 12.7   7.96   9.41 100.000  Aqr
 2018-Feb-28 00:00     23 00 38.30 -07 19 01.7 23 01 32.90 -07 13 20.5   7.96   9.41 100.000  Aqr
 2018-Mar-01 00:00     23 00 46.77 -07 18 09.6 23 01 41.37 -07 12 28.4   7.96   9.41 100.000  Aqr
 2018-Mar-02 00:00     23 00 55.25 -07 17 17.6 23 01 49.85 -07 11 36.3   7.96   9.41 100.000  Aqr
 2018-Mar-03 00:00     23 01 03.73 -07 16 25.5 23 01 58.34 -07 10 44.2   7.96   9.41 100.000  Aqr
 2018-Mar-04 00:00     23 01 12.21 -07 15 33.4 23 02 06.82 -07 09 52.3   7.96   9.41 100.000  Aqr
 2018-Mar-05 00:00     23 01 20.70 -07 14 41.3 23 02 15.28 -07 09 00.3   7.96   9.41 100.000  Aqr
 2018-Mar-06 00:00     23 01 29.19 -07 13 49.2 23 02 23.76 -07 08 08.0   7.96   9.40 100.000  Aqr
 2018-Mar-07 00:00     23 01 37.67 -07 12 57.2 23 02 32.25 -07 07 15.7   7.96   9.40 100.000  Aqr
 2018-Mar-08 00:00     23 01 46.15 -07 12 05.2 23 02 40.73 -07 06 23.6   7.96   9.40 100.000  Aqr
 2018-Mar-09 00:00     23 01 54.63 -07 11 13.3 23 02 49.21 -07 05 31.6   7.96   9.40 100.000  Aqr
 2018-Mar-10 00:00     23 02 03.09 -07 10 21.4 23 02 57.69 -07 04 39.6   7.96   9.40 100.000  Aqr
 2018-Mar-11 00:00     23 02 11.55 -07 09 29.7 23 03 06.15 -07 03 47.7   7.96   9.40 100.000  Aqr
 2018-Mar-12 00:00     23 02 20.00 -07 08 38.0 23 03 14.61 -07 02 55.9   7.96   9.40 100.000  Aqr
 2018-Mar-13 00:00     23 02 28.43 -07 07 46.4 23 03 23.05 -07 02 04.2   7.96   9.40  99.999  Aqr
 2018-Mar-14 00:00     23 02 36.84 -07 06 55.0 23 03 31.47 -07 01 12.6   7.96   9.40  99.999  Aqr
 2018-Mar-15 00:00     23 02 45.24 -07 06 03.7 23 03 39.88 -07 00 21.2   7.96   9.40  99.999  Aqr
 2018-Mar-16 00:00     23 02 53.62 -07 05 12.5 23 03 48.26 -06 59 30.0   7.96   9.40  99.999  Aqr
 2018-Mar-17 00:00     23 03 01.98 -07 04 21.5 23 03 56.62 -06 58 38.8   7.96   9.40  99.999  Aqr
 2018-Mar-18 00:00     23 03 10.31 -07 03 30.6 23 04 04.95 -06 57 47.9   7.96   9.41  99.999  Aqr
 2018-Mar-19 00:00     23 03 18.62 -07 02 39.9 23 04 13.26 -06 56 57.2   7.96   9.41  99.998  Aqr
 2018-Mar-20 00:00     23 03 26.90 -07 01 49.5 23 04 21.55 -06 56 06.6   7.96   9.41  99.998  Aqr
 2018-Mar-21 00:00     23 03 35.16 -07 00 59.2 23 04 29.80 -06 55 16.2   7.96   9.41  99.998  Aqr
 2018-Mar-22 00:00     23 03 43.38 -07 00 09.1 23 04 38.03 -06 54 26.0   7.96   9.41  99.998  Aqr
 2018-Mar-23 00:00     23 03 51.56 -06 59 19.3 23 04 46.23 -06 53 36.0   7.96   9.41  99.997  Aqr
 2018-Mar-24 00:00     23 03 59.71 -06 58 29.7 23 04 54.40 -06 52 46.2   7.96   9.41  99.997  Aqr
 2018-Mar-25 00:00     23 04 07.83 -06 57 40.3 23 05 02.53 -06 51 56.7   7.96   9.41  99.997  Aqr
 2018-Mar-26 00:00     23 04 15.90 -06 56 51.3 23 05 10.62 -06 51 07.5   7.96   9.42  99.997  Aqr
 2018-Mar-27 00:00     23 04 23.94 -06 56 02.5 23 05 18.67 -06 50 18.5   7.96   9.42  99.996  Aqr
 2018-Mar-28 00:00     23 04 31.93 -06 55 13.9 23 05 26.67 -06 49 29.9   7.96   9.42  99.996  Aqr
 2018-Mar-29 00:00     23 04 39.88 -06 54 25.7 23 05 34.63 -06 48 41.5   7.96   9.42  99.996  Aqr
 2018-Mar-30 00:00     23 04 47.79 -06 53 37.8 23 05 42.54 -06 47 53.5   7.96   9.42  99.995  Aqr
 2018-Mar-31 00:00     23 04 55.64 -06 52 50.2 23 05 50.41 -06 47 05.8   7.96   9.42  99.995  Aqr
 2018-Apr-01 00:00     23 05 03.45 -06 52 02.9 23 05 58.22 -06 46 18.4   7.96   9.42  99.995  Aqr
 2018-Apr-02 00:00     23 05 11.21 -06 51 15.9 23 06 05.99 -06 45 31.3   7.96   9.42  99.994  Aqr
 2018-Apr-03 00:00     23 05 18.92 -06 50 29.3 23 06 13.70 -06 44 44.6   7.96   9.42  99.994  Aqr
 2018-Apr-04 00:00     23 05 26.57 -06 49 43.0 23 06 21.37 -06 43 58.1   7.96   9.42  99.993  Aqr
 2018-Apr-05 00:00     23 05 34.17 -06 48 57.1 23 06 28.98 -06 43 12.1   7.95   9.42  99.993  Aqr
 2018-Apr-06 00:00     23 05 41.71 -06 48 11.6 23 06 36.54 -06 42 26.4   7.95   9.42  99.993  Aqr
 2018-Apr-07 00:00     23 05 49.20 -06 47 26.5 23 06 44.05 -06 41 41.1   7.95   9.42  99.992  Aqr
 2018-Apr-08 00:00     23 05 56.62 -06 46 41.7 23 06 51.49 -06 40 56.1   7.95   9.42  99.992  Aqr
 2018-Apr-09 00:00     23 06 03.99 -06 45 57.4 23 06 58.87 -06 40 11.6   7.95   9.42  99.991  Aqr
 2018-Apr-10 00:00     23 06 11.29 -06 45 13.5 23 07 06.19 -06 39 27.5   7.95   9.42  99.991  Aqr
 2018-Apr-11 00:00     23 06 18.53 -06 44 30.0 23 07 13.44 -06 38 43.9   7.95   9.42  99.990  Aqr
 2018-Apr-12 00:00     23 06 25.70 -06 43 46.9 23 07 20.63 -06 38 00.7   7.95   9.42  99.990  Aqr
 2018-Apr-13 00:00     23 06 32.80 -06 43 04.3 23 07 27.74 -06 37 17.9   7.95   9.42  99.990  Aqr
 2018-Apr-14 00:00     23 06 39.83 -06 42 22.1 23 07 34.78 -06 36 35.6   7.95   9.41  99.989  Aqr
 2018-Apr-15 00:00     23 06 46.79 -06 41 40.4 23 07 41.76 -06 35 53.8   7.95   9.41  99.989  Aqr
 2018-Apr-16 00:00     23 06 53.68 -06 40 59.2 23 07 48.65 -06 35 12.4   7.95   9.41  99.988  Aqr
 2018-Apr-17 00:00     23 07 00.49 -06 40 18.4 23 07 55.48 -06 34 31.5   7.95   9.41  99.988  Aqr
 2018-Apr-18 00:00     23 07 07.23 -06 39 38.2 23 08 02.24 -06 33 51.1   7.95   9.41  99.987  Aqr
 2018-Apr-19 00:00     23 07 13.89 -06 38 58.5 23 08 08.92 -06 33 11.2   7.94   9.41  99.987  Aqr
 2018-Apr-20 00:00     23 07 20.46 -06 38 19.2 23 08 15.52 -06 32 31.7   7.94   9.41  99.986  Aqr
 2018-Apr-21 00:00     23 07 26.96 -06 37 40.5 23 08 22.04 -06 31 52.8   7.94   9.41  99.986  Aqr
 2018-Apr-22 00:00     23 07 33.38 -06 37 02.4 23 08 28.49 -06 31 14.4   7.94   9.41  99.985  Aqr
